{
  "type": "FeatureCollection",
  "features": [
    {
      "type": "Feature",
      "geometry": {
        "type": "Polygon",
        "coordinates": [
          [
            [
              10.609681606292725,
              35.29275417266541
            ],
            [
              10.613458156585695,
              35.294365442857305
            ],
            [
              10.617835521697998,
              35.29580154794966
            ],
            [
              10.618135929107666,
              35.294917120388675
            ],
            [
              10.618704557418823,
              35.29388381654129
            ],
            [
              10.621987581253052,
              35.29482079601131
            ],
            [
              10.623189210891725,
              35.29248270550851
            ],
            [
              10.622427463531496,
              35.292228751537486
            ],
            [
              10.624240636825563,
              35.28943520527152
            ],
            [
              10.621236562728882,
              35.28820040958481
            ],
            [
              10.62209486961365,
              35.2863788326271
            ],
            [
              10.620120763778688,
              35.28580958142273
            ],
            [
              10.617138147354126,
              35.28510020124355
            ],
            [
              10.616859197616579,
              35.2856782151918
            ],
            [
              10.615625381469728,
              35.285257841820474
            ],
            [
              10.6143057346344,
              35.28742974741226
            ],
            [
              10.613243579864504,
              35.28890100519374
            ],
            [
              10.613737106323242,
              35.289146212224495
            ],
            [
              10.61330795288086,
              35.289943129945016
            ],
            [
              10.611248016357422,
              35.28911994007817
            ],
            [
              10.610507726669312,
              35.290013188270564
            ],
            [
              10.610164403915405,
              35.29150191335498
            ],
            [
              10.609681606292725,
              35.29275417266541
            ]
          ]
        ]
      },
      "properties": {
        "id": "parcel_1777665966157_egeq5",
        "name": "Parcelle 1",
        "crop": "olivier",
        "systeme": "extensif",
        "area_ha": 94.92092846720377,
        "created_at": "2026-05-01T20:06:06.157Z",
        "gouvernorat": "ولاية المهدية",
        "split": "train"
      }
    },
    {
      "type": "Feature",
      "geometry": {
        "type": "Polygon",
        "coordinates": [
          [
            [
              10.367789268493654,
              34.97143000072404
            ],
            [
              10.368819236755373,
              34.97304764199122
            ],
            [
              10.375771522521974,
              34.9732234706388
            ],
            [
              10.386972427368166,
              34.9841944316028
            ],
            [
              10.411691665649416,
              35.00047234721342
            ],
            [
              10.408945083618166,
              35.006202246786415
            ],
            [
              10.406284332275392,
              35.00803010577839
            ],
            [
              10.380191802978517,
              35.02149173198311
            ],
            [
              10.373282432556154,
              35.019347861543686
            ],
            [
              10.370793342590334,
              35.00377675545703
            ],
            [
              10.361266136169435,
              35.00890886960201
            ],
            [
              10.350794792175295,
              35.01527083808459
            ],
            [
              10.3441858291626,
              35.00078873250306
            ],
            [
              10.348520278930666,
              34.99794122085656
            ],
            [
              10.344486236572267,
              34.992984204957644
            ],
            [
              10.33967971801758,
              34.99502329749336
            ],
            [
              10.333242416381838,
              34.987358858734595
            ],
            [
              10.367789268493654,
              34.97143000072404
            ]
          ]
        ]
      },
      "properties": {
        "id": "parcel_1777666032243_cm5hf",
        "name": "Parcelle 2",
        "crop": "olivier",
        "systeme": "extensif",
        "area_ha": 2104.0940821600525,
        "created_at": "2026-05-01T20:07:12.243Z",
        "gouvernorat": "ولاية صفاقس",
        "split": "train"
      }
    },
    {
      "type": "Feature",
      "geometry": {
        "type": "Polygon",
        "coordinates": [
          [
            [
              10.333542823791506,
              34.98746433753251
            ],
            [
              10.285391807556152,
              35.00887371923034
            ],
            [
              10.256080627441406,
              35.0196993195663
            ],
            [
              10.28951168060303,
              35.05230804828909
            ],
            [
              10.305776596069338,
              35.04341924328843
            ],
            [
              10.302429199218752,
              35.0394488321224
            ],
            [
              10.319595336914064,
              35.03112088289652
            ],
            [
              10.322771072387697,
              35.03463488902387
            ],
            [
              10.333628654479982,
              35.02876641426462
            ],
            [
              10.343112945556642,
              35.02370583424884
            ],
            [
              10.351781845092775,
              35.01709849442701
            ],
            [
              10.333542823791506,
              34.98746433753251
            ]
          ]
        ]
      },
      "properties": {
        "id": "parcel_1777666069829_t5ehp",
        "name": "Parcelle 3",
        "crop": "olivier",
        "systeme": "extensif",
        "area_ha": 2988.389915036504,
        "created_at": "2026-05-01T20:07:49.829Z",
        "gouvernorat": "ولاية صفاقس",
        "split": "train"
      }
    },
    {
      "type": "Feature",
      "geometry": {
        "type": "Polygon",
        "coordinates": [
          [
            [
              10.403752326965334,
              35.11983836576603
            ],
            [
              10.435638427734377,
              35.1082887817508
            ],
            [
              10.431947708129885,
              35.10067007507123
            ],
            [
              10.412979125976564,
              35.10653338252038
            ],
            [
              10.40010452270508,
              35.11201010307716
            ],
            [
              10.390748977661135,
              35.1150993728142
            ],
            [
              10.392765998840334,
              35.119031001263075
            ],
            [
              10.403752326965334,
              35.11983836576603
            ]
          ]
        ]
      },
      "properties": {
        "id": "parcel_1777666096636_lo0y0",
        "name": "Parcelle 4",
        "crop": "olivier",
        "systeme": "extensif",
        "area_ha": 369.5143302028536,
        "created_at": "2026-05-01T20:08:16.636Z",
        "gouvernorat": "ولاية المهدية",
        "split": "train"
      }
    },
    {
      "type": "Feature",
      "geometry": {
        "type": "Polygon",
        "coordinates": [
          [
            [
              10.386843681335451,
              35.092032339035605
            ],
            [
              10.386199951171877,
              35.09140027364227
            ],
            [
              10.40061950683594,
              35.06481397751247
            ],
            [
              10.402379035949709,
              35.061898440531564
            ],
            [
              10.405640602111818,
              35.064076321369214
            ],
            [
              10.40958881378174,
              35.06751865967421
            ],
            [
              10.415039062500002,
              35.07254140305869
            ],
            [
              10.412807464599611,
              35.07436777855785
            ],
            [
              10.41285037994385,
              35.07559704674357
            ],
            [
              10.409717559814455,
              35.07756383732175
            ],
            [
              10.412936210632326,
              35.083288332922834
            ],
            [
              10.419459342956545,
              35.08788871002626
            ],
            [
              10.417356491088869,
              35.089468932364404
            ],
            [
              10.409717559814455,
              35.090487281647555
            ],
            [
              10.405769348144533,
              35.093331569181274
            ],
            [
              10.386843681335451,
              35.092032339035605
            ]
          ]
        ]
      },
      "properties": {
        "id": "parcel_1777666127269_tb54q",
        "name": "Parcelle 5",
        "crop": "olivier",
        "systeme": "extensif",
        "area_ha": 555.0980749596731,
        "created_at": "2026-05-01T20:08:47.269Z",
        "gouvernorat": "ولاية صفاقس",
        "split": "train"
      }
    },
    {
      "type": "Feature",
      "geometry": {
        "type": "Polygon",
        "coordinates": [
          [
            [
              10.525331497192385,
              35.039659655264934
            ],
            [
              10.534000396728516,
              35.04717865830446
            ],
            [
              10.550780296325685,
              35.0548726224782
            ],
            [
              10.561251640319826,
              35.0585261233151
            ],
            [
              10.562624931335451,
              35.05757763400087
            ],
            [
              10.564727783203127,
              35.058736897221976
            ],
            [
              10.564684867858888,
              35.059720501593084
            ],
            [
              10.56833267211914,
              35.06080947832481
            ],
            [
              10.573010444641115,
              35.059298958313576
            ],
            [
              10.577216148376467,
              35.05539957980261
            ],
            [
              10.579361915588379,
              35.0502001187922
            ],
            [
              10.58262348175049,
              35.043103022922324
            ],
            [
              10.587430000305176,
              35.039378557620665
            ],
            [
              10.593652725219728,
              35.03565392253886
            ],
            [
              10.586657524108888,
              35.016571290058614
            ],
            [
              10.572752952575685,
              35.019277569757875
            ],
            [
              10.563011169433594,
              35.021808035977806
            ],
            [
              10.5564022064209,
              35.022510929362774
            ],
            [
              10.54940700531006,
              35.02430328014285
            ],
            [
              10.540480613708498,
              35.026271306325526
            ],
            [
              10.539579391479492,
              35.028731272428075
            ],
            [
              10.537519454956056,
              35.03020721655492
            ],
            [
              10.536446571350098,
              35.033088744942326
            ],
            [
              10.534901618957521,
              35.03459974971053
            ],
            [
              10.533013343811037,
              35.03431863465965
            ],
            [
              10.53219795227051,
              35.032526503478394
            ],
            [
              10.525331497192385,
              35.039659655264934
            ]
          ]
        ]
      },
      "properties": {
        "id": "parcel_1777666170696_fk7cq",
        "name": "Parcelle 6",
        "crop": "olivier",
        "systeme": "extensif",
        "area_ha": 1807.1164396063298,
        "created_at": "2026-05-01T20:09:30.696Z",
        "gouvernorat": "ولاية صفاقس",
        "split": "train"
      }
    },
    {
      "type": "Feature",
      "geometry": {
        "type": "Polygon",
        "coordinates": [
          [
            [
              10.615110397338869,
              35.04552734778223
            ],
            [
              10.620002746582033,
              35.0348457245868
            ],
            [
              10.609531402587892,
              35.025779304221516
            ],
            [
              10.607213973999025,
              35.02704444650624
            ],
            [
              10.602836608886719,
              35.0246547168645
            ],
            [
              10.596570968627931,
              35.02662273458687
            ],
            [
              10.606184005737305,
              35.0362512811053
            ],
            [
              10.609531402587892,
              35.0348457245868
            ],
            [
              10.610990524291992,
              35.038148744056585
            ],
            [
              10.614509582519533,
              35.0384298459317
            ],
            [
              10.612363815307619,
              35.04208408230533
            ],
            [
              10.615110397338869,
              35.04552734778223
            ]
          ]
        ]
      },
      "properties": {
        "id": "parcel_1777666196106_hhim9",
        "name": "Parcelle 7",
        "crop": "olivier",
        "systeme": "extensif",
        "area_ha": 189.6459480475336,
        "created_at": "2026-05-01T20:09:56.106Z",
        "gouvernorat": "ولاية صفاقس",
        "split": "train"
      }
    },
    {
      "type": "Feature",
      "geometry": {
        "type": "Polygon",
        "coordinates": [
          [
            [
              10.62755584716797,
              35.01324982438197
            ],
            [
              10.620410442352295,
              35.001667574111046
            ],
            [
              10.617556571960451,
              35.00273974808987
            ],
            [
              10.61257839202881,
              35.00491920598363
            ],
            [
              10.606527328491213,
              35.007731323927864
            ],
            [
              10.593459606170654,
              35.01397036543081
            ],
            [
              10.593717098236084,
              35.01458545642555
            ],
            [
              10.603544712066652,
              35.01404066177863
            ],
            [
              10.611677169799806,
              35.013513437697206
            ],
            [
              10.618607997894289,
              35.013636456953535
            ],
            [
              10.622363090515138,
              35.013531011888
            ],
            [
              10.62755584716797,
              35.01324982438197
            ]
          ]
        ]
      },
      "properties": {
        "id": "parcel_1777666217906_3lfgs",
        "name": "Parcelle 8",
        "crop": "olivier",
        "systeme": "extensif",
        "area_ha": 214.9880465862079,
        "created_at": "2026-05-01T20:10:17.906Z",
        "gouvernorat": "ولاية صفاقس",
        "split": "train"
      }
    },
    {
      "type": "Feature",
      "geometry": {
        "type": "Polygon",
        "coordinates": [
          [
            [
              10.634422302246094,
              35.01291591296292
            ],
            [
              10.62978744506836,
              35.00825858528068
            ],
            [
              10.639829635620117,
              35.00092934779467
            ],
            [
              10.641331672668459,
              35.002247604401404
            ],
            [
              10.646181106567385,
              35.01312680454406
            ],
            [
              10.634422302246094,
              35.01291591296292
            ]
          ]
        ]
      },
      "properties": {
        "id": "parcel_1777666232428_43q5u",
        "name": "Parcelle 9",
        "crop": "olivier",
        "systeme": "extensif",
        "area_ha": 117.86978313823562,
        "created_at": "2026-05-01T20:10:32.428Z",
        "gouvernorat": "ولاية صفاقس",
        "split": "train"
      }
    },
    {
      "type": "Feature",
      "geometry": {
        "type": "Polygon",
        "coordinates": [
          [
            [
              10.611076354980469,
              35.0217201738798
            ],
            [
              10.622255802154543,
              35.02488314992344
            ],
            [
              10.625710487365724,
              35.02569144639135
            ],
            [
              10.628199577331545,
              35.02268665176483
            ],
            [
              10.624637603759766,
              35.021368724543585
            ],
            [
              10.619552135467531,
              35.0185570754695
            ],
            [
              10.611076354980469,
              35.0217201738798
            ]
          ]
        ]
      },
      "properties": {
        "id": "parcel_1777666247763_3i29v",
        "name": "Parcelle 10",
        "crop": "olivier",
        "systeme": "extensif",
        "area_ha": 58.115115913749065,
        "created_at": "2026-05-01T20:10:47.763Z",
        "gouvernorat": "ولاية صفاقس",
        "split": "train"
      }
    },
    {
      "type": "Feature",
      "geometry": {
        "type": "Polygon",
        "coordinates": [
          [
            [
              10.625302791595459,
              35.03788521017039
            ],
            [
              10.62955141067505,
              35.036040449168695
            ],
            [
              10.629014968872072,
              35.03516197691125
            ],
            [
              10.631997585296633,
              35.03377397149678
            ],
            [
              10.630431175231935,
              35.033018464970844
            ],
            [
              10.62980890274048,
              35.032544073582685
            ],
            [
              10.628886222839357,
              35.03298332496246
            ],
            [
              10.628242492675783,
              35.032649494129146
            ],
            [
              10.628564357757568,
              35.031981828371734
            ],
            [
              10.628886222839357,
              35.03150743096642
            ],
            [
              10.62800645828247,
              35.03089246726864
            ],
            [
              10.627148151397707,
              35.03006665159585
            ],
            [
              10.626418590545656,
              35.02943410628853
            ],
            [
              10.623478889465334,
              35.02890698145975
            ],
            [
              10.6213116645813,
              35.03289547487537
            ],
            [
              10.622148513793947,
              35.03393209988579
            ],
            [
              10.62201976776123,
              35.03475787650168
            ],
            [
              10.621891021728516,
              35.03514440736976
            ],
            [
              10.622942447662354,
              35.03654995875098
            ],
            [
              10.623371601104736,
              35.037217587188024
            ],
            [
              10.62405824661255,
              35.03709460341213
            ],
            [
              10.625302791595459,
              35.03788521017039
            ]
          ]
        ]
      },
      "properties": {
        "id": "parcel_1777666273477_7e680",
        "name": "Parcelle 11",
        "crop": "olivier",
        "systeme": "extensif",
        "area_ha": 54.66463616439917,
        "created_at": "2026-05-01T20:11:13.477Z",
        "gouvernorat": "ولاية صفاقس",
        "split": "train"
      }
    },
    {
      "type": "Feature",
      "geometry": {
        "type": "Polygon",
        "coordinates": [
          [
            [
              10.63304901123047,
              35.034722737241204
            ],
            [
              10.635452270507814,
              35.03375640165691
            ],
            [
              10.637834072113039,
              35.03305360496414
            ],
            [
              10.636696815490724,
              35.03047077520164
            ],
            [
              10.63603162765503,
              35.030664051002425
            ],
            [
              10.634357929229738,
              35.02904754841315
            ],
            [
              10.634636878967285,
              35.028590704930764
            ],
            [
              10.635495185852053,
              35.02730801535109
            ],
            [
              10.633885860443115,
              35.02713230288228
            ],
            [
              10.631160736083986,
              35.02426813638757
            ],
            [
              10.63008785247803,
              35.02449657052671
            ],
            [
              10.630624294281006,
              35.025709017964935
            ],
            [
              10.629315376281738,
              35.02690387610819
            ],
            [
              10.627684593200685,
              35.028291998196394
            ],
            [
              10.626997947692871,
              35.02883669789241
            ],
            [
              10.627384185791016,
              35.03006665159585
            ],
            [
              10.628757476806642,
              35.03048834574785
            ],
            [
              10.629401206970215,
              35.03008422222896
            ],
            [
              10.63055992126465,
              35.029961227717926
            ],
            [
              10.631182193756104,
              35.030541057363884
            ],
            [
              10.630452632904053,
              35.03106817165444
            ],
            [
              10.631611347198488,
              35.031981828371734
            ],
            [
              10.632512569427492,
              35.032280521621644
            ],
            [
              10.633199214935303,
              35.03282519473771
            ],
            [
              10.63304901123047,
              35.03356313316888
            ],
            [
              10.632405281066895,
              35.033738831813245
            ],
            [
              10.63304901123047,
              35.034722737241204
            ]
          ]
        ]
      },
      "properties": {
        "id": "parcel_1777666300643_1c2ue",
        "name": "Parcelle 12",
        "crop": "olivier",
        "systeme": "extensif",
        "area_ha": 49.28764309617389,
        "created_at": "2026-05-01T20:11:40.643Z",
        "gouvernorat": "ولاية صفاقس",
        "split": "train"
      }
    },
    {
      "type": "Feature",
      "geometry": {
        "type": "Polygon",
        "coordinates": [
          [
            [
              10.49271583557129,
              35.031033030807485
            ],
            [
              10.498809814453127,
              35.03890420315312
            ],
            [
              10.502092838287355,
              35.04308545508831
            ],
            [
              10.507392883300783,
              35.048970468127834
            ],
            [
              10.50846576690674,
              35.0484610360006
            ],
            [
              10.507006645202638,
              35.04673948323255
            ],
            [
              10.509109497070314,
              35.045790857018886
            ],
            [
              10.512049198150635,
              35.043753030124776
            ],
            [
              10.516598224639894,
              35.04884750204321
            ],
            [
              10.520160198211672,
              35.04491248959109
            ],
            [
              10.519151687622072,
              35.04350708206181
            ],
            [
              10.52069664001465,
              35.04248814648434
            ],
            [
              10.521812438964846,
              35.0432787010546
            ],
            [
              10.524988174438478,
              35.03955424376166
            ],
            [
              10.519731044769289,
              35.03526739408075
            ],
            [
              10.517048835754396,
              35.03421321626627
            ],
            [
              10.505311489105226,
              35.03259678387291
            ],
            [
              10.49271583557129,
              35.031033030807485
            ]
          ]
        ]
      },
      "properties": {
        "id": "parcel_1777666340373_juajr",
        "name": "Parcelle 13",
        "crop": "olivier",
        "systeme": "extensif",
        "area_ha": 303.20435155336753,
        "created_at": "2026-05-01T20:12:20.373Z",
        "gouvernorat": "ولاية صفاقس",
        "split": "train"
      }
    },
    {
      "type": "Feature",
      "geometry": {
        "type": "Polygon",
        "coordinates": [
          [
            [
              10.492630004882814,
              35.03076947397384
            ],
            [
              10.482652187347414,
              35.01917213196589
            ],
            [
              10.484712123870851,
              35.01448001258356
            ],
            [
              10.489304065704347,
              35.0107718176869
            ],
            [
              10.496771335601808,
              35.00414585660239
            ],
            [
              10.500161647796633,
              35.00572769979328
            ],
            [
              10.504024028778076,
              35.008856144038816
            ],
            [
              10.506727695465088,
              35.01135178342994
            ],
            [
              10.510504245758058,
              35.01418125429301
            ],
            [
              10.520009994506838,
              35.022264917365405
            ],
            [
              10.52018165588379,
              35.02521701247679
            ],
            [
              10.516147613525392,
              35.02753644099585
            ],
            [
              10.517177581787111,
              35.029644955268225
            ],
            [
              10.523271560668945,
              35.02620102049196
            ],
            [
              10.528421401977539,
              35.02880155608607
            ],
            [
              10.531597137451172,
              35.032456223023445
            ],
            [
              10.525159835815431,
              35.03962451811228
            ],
            [
              10.518808364868166,
              35.03449433167976
            ],
            [
              10.492630004882814,
              35.03076947397384
            ]
          ]
        ]
      },
      "properties": {
        "id": "parcel_1777666373384_lm2rb",
        "name": "Parcelle 14",
        "crop": "olivier",
        "systeme": "extensif",
        "area_ha": 802.5649560894694,
        "created_at": "2026-05-01T20:12:53.384Z",
        "gouvernorat": "ولاية صفاقس",
        "split": "train"
      }
    },
    {
      "type": "Feature",
      "geometry": {
        "type": "Polygon",
        "coordinates": [
          [
            [
              10.435380935668947,
              35.05336199263528
            ],
            [
              10.427505970001222,
              35.046230037191
            ],
            [
              10.428256988525392,
              35.04535167448557
            ],
            [
              10.435702800750734,
              35.044701680003044
            ],
            [
              10.440101623535158,
              35.04438546460099
            ],
            [
              10.439393520355226,
              35.04550978046958
            ],
            [
              10.437440872192385,
              35.05012985353865
            ],
            [
              10.435380935668947,
              35.05336199263528
            ]
          ]
        ]
      },
      "properties": {
        "id": "parcel_1777666392195_gp8ab",
        "name": "Parcelle 15",
        "crop": "olivier",
        "systeme": "extensif",
        "area_ha": 59.06211966714234,
        "created_at": "2026-05-01T20:13:12.195Z",
        "gouvernorat": "ولاية صفاقس",
        "split": "train"
      }
    },
    {
      "type": "Feature",
      "geometry": {
        "type": "Polygon",
        "coordinates": [
          [
            [
              10.441195964813234,
              35.05016498617298
            ],
            [
              10.44904947280884,
              35.043489514314686
            ],
            [
              10.453255176544191,
              35.04691515354466
            ],
            [
              10.452353954315187,
              35.048355635853454
            ],
            [
              10.453855991363527,
              35.04972582715769
            ],
            [
              10.456817150115969,
              35.05193916455456
            ],
            [
              10.455143451690676,
              35.05601435904989
            ],
            [
              10.444843769073488,
              35.05337955825916
            ],
            [
              10.441195964813234,
              35.05016498617298
            ]
          ]
        ]
      },
      "properties": {
        "id": "parcel_1777666410382_4ozey",
        "name": "Parcelle 16",
        "crop": "olivier",
        "systeme": "extensif",
        "area_ha": 104.69984177156394,
        "created_at": "2026-05-01T20:13:30.382Z",
        "gouvernorat": "ولاية صفاقس",
        "split": "train"
      }
    },
    {
      "type": "Feature",
      "geometry": {
        "type": "Polygon",
        "coordinates": [
          [
            [
              10.444586277008058,
              35.04403411271866
            ],
            [
              10.450444221496584,
              35.04334897220174
            ],
            [
              10.453855991363527,
              35.0423827386303
            ],
            [
              10.455701351165773,
              35.0407488995021
            ],
            [
              10.450723171234133,
              35.03705946515644
            ],
            [
              10.451323986053469,
              35.03607558786257
            ],
            [
              10.448577404022219,
              35.034265925479964
            ],
            [
              10.447354316711428,
              35.03530253310705
            ],
            [
              10.443341732025148,
              35.03256164368321
            ],
            [
              10.44231176376343,
              35.03349285360536
            ],
            [
              10.441496372222902,
              35.03294818493896
            ],
            [
              10.441989898681642,
              35.03113845330299
            ],
            [
              10.438599586486818,
              35.03187640696408
            ],
            [
              10.436089038848879,
              35.03231566193224
            ],
            [
              10.434393882751467,
              35.032526503478394
            ],
            [
              10.43256998062134,
              35.032280521621644
            ],
            [
              10.429952144622805,
              35.035179546448944
            ],
            [
              10.430960655212404,
              35.03593503299644
            ],
            [
              10.424845218658449,
              35.04131108439452
            ],
            [
              10.425188541412355,
              35.04229489864806
            ],
            [
              10.429437160491945,
              35.045193568195565
            ],
            [
              10.438084602355959,
              35.038746084385295
            ],
            [
              10.43905019760132,
              35.03936098898579
            ],
            [
              10.436840057373049,
              35.040889446087846
            ],
            [
              10.438449382781984,
              35.04178542488859
            ],
            [
              10.43628215789795,
              35.04366519161587
            ],
            [
              10.437440872192385,
              35.044490869871
            ],
            [
              10.44055223464966,
              35.04442059970611
            ],
            [
              10.442419052124025,
              35.04445573479611
            ],
            [
              10.444586277008058,
              35.04403411271866
            ]
          ]
        ]
      },
      "properties": {
        "id": "parcel_1777666449437_wci0q",
        "name": "Parcelle 17",
        "crop": "olivier",
        "systeme": "extensif",
        "area_ha": 253.9376947109025,
        "created_at": "2026-05-01T20:14:09.437Z",
        "gouvernorat": "ولاية صفاقس",
        "split": "train"
      }
    },
    {
      "type": "Feature",
      "geometry": {
        "type": "Polygon",
        "coordinates": [
          [
            [
              10.310153961181642,
              34.95820634396683
            ],
            [
              10.333135128021242,
              34.98711274101094
            ],
            [
              10.305926799774172,
              35.00019111481785
            ],
            [
              10.286400318145754,
              34.975755361312764
            ],
            [
              10.294532775878908,
              34.971992662179474
            ],
            [
              10.293459892272951,
              34.97062116811066
            ],
            [
              10.298416614532472,
              34.968089118732436
            ],
            [
              10.307729244232178,
              34.96355233454366
            ],
            [
              10.305175781250002,
              34.96056284332336
            ],
            [
              10.310153961181642,
              34.95820634396683
            ]
          ]
        ]
      },
      "properties": {
        "id": "parcel_1777666485645_8qagw",
        "name": "Parcelle 18",
        "crop": "olivier",
        "systeme": "extensif",
        "area_ha": 990.7245079752144,
        "created_at": "2026-05-01T20:14:45.645Z",
        "gouvernorat": "ولاية صفاقس",
        "split": "train"
      }
    },
    {
      "type": "Feature",
      "geometry": {
        "type": "Polygon",
        "coordinates": [
          [
            [
              10.312385559082033,
              34.96024630257349
            ],
            [
              10.315303802490236,
              34.95954287430729
            ],
            [
              10.316162109375002,
              34.96130143365135
            ],
            [
              10.318136215209963,
              34.96109040852263
            ],
            [
              10.319595336914064,
              34.96327097531352
            ],
            [
              10.323543548583986,
              34.96348199482668
            ],
            [
              10.325002670288086,
              34.96488877769285
            ],
            [
              10.331268310546877,
              34.962778594336115
            ],
            [
              10.32895088195801,
              34.959261501310166
            ],
            [
              10.32371520996094,
              34.95398557874215
            ],
            [
              10.33195495605469,
              34.9502570553309
            ],
            [
              10.336074829101564,
              34.94786508309557
            ],
            [
              10.354700088500978,
              34.97705644135267
            ],
            [
              10.332984924316406,
              34.98746433753251
            ],
            [
              10.312385559082033,
              34.96024630257349
            ]
          ]
        ]
      },
      "properties": {
        "id": "parcel_1777666507054_wo1vk",
        "name": "Parcelle 19",
        "crop": "olivier",
        "systeme": "extensif",
        "area_ha": 778.7330248700009,
        "created_at": "2026-05-01T20:15:07.054Z",
        "gouvernorat": "ولاية صفاقس",
        "split": "train"
      }
    },
    {
      "type": "Feature",
      "geometry": {
        "type": "Polygon",
        "coordinates": [
          [
            [
              10.285778045654299,
              34.975860855058976
            ],
            [
              10.306034088134767,
              35.00040203920514
            ],
            [
              10.272130966186523,
              35.01361888278539
            ],
            [
              10.247411727905275,
              34.983456047673045
            ],
            [
              10.25505065917969,
              34.98254184881985
            ],
            [
              10.262174606323244,
              34.98901134428797
            ],
            [
              10.274105072021486,
              34.984229592576206
            ],
            [
              10.282516479492188,
              34.9805024453652
            ],
            [
              10.279083251953127,
              34.97783004671269
            ],
            [
              10.285778045654299,
              34.975860855058976
            ]
          ]
        ]
      },
      "properties": {
        "id": "parcel_1777666529889_rdkq2",
        "name": "Parcelle 20",
        "crop": "olivier",
        "systeme": "extensif",
        "area_ha": 1078.2700727821218,
        "created_at": "2026-05-01T20:15:29.889Z",
        "gouvernorat": "ولاية صفاقس",
        "split": "train"
      }
    },
    {
      "type": "Feature",
      "geometry": {
        "type": "Polygon",
        "coordinates": [
          [
            [
              10.148534774780275,
              35.05480236124469
            ],
            [
              10.174970626831056,
              35.05466183859628
            ],
            [
              10.193080902099611,
              35.039273145754755
            ],
            [
              10.18535614013672,
              35.029504389342186
            ],
            [
              10.166215896606447,
              35.02767701030615
            ],
            [
              10.14716148376465,
              35.02823928512995
            ],
            [
              10.131111145019533,
              35.03224538129597
            ],
            [
              10.124588012695314,
              35.046862452490686
            ],
            [
              10.148534774780275,
              35.05480236124469
            ]
          ]
        ]
      },
      "properties": {
        "id": "parcel_1777666572107_7pdad",
        "name": "Parcelle 21",
        "crop": "olivier",
        "systeme": "extensif",
        "area_ha": 1443.2951926499438,
        "created_at": "2026-05-01T20:16:12.107Z",
        "gouvernorat": "ولاية صفاقس",
        "split": "train"
      }
    },
    {
      "type": "Feature",
      "geometry": {
        "type": "Polygon",
        "coordinates": [
          [
            [
              10.15840530395508,
              35.05501314476387
            ],
            [
              10.149564743041994,
              35.05522392773897
            ],
            [
              10.12467384338379,
              35.04714352438559
            ],
            [
              10.106992721557619,
              35.06505986141228
            ],
            [
              10.117635726928713,
              35.06990713563417
            ],
            [
              10.128364562988283,
              35.074332656337596
            ],
            [
              10.135316848754885,
              35.07651020540783
            ],
            [
              10.15840530395508,
              35.05501314476387
            ]
          ]
        ]
      },
      "properties": {
        "id": "parcel_1777666591451_o64cz",
        "name": "Parcelle 22",
        "crop": "olivier",
        "systeme": "extensif",
        "area_ha": 790.8698653056623,
        "created_at": "2026-05-01T20:16:31.451Z",
        "gouvernorat": "ولاية صفاقس",
        "split": "train"
      }
    },
    {
      "type": "Feature",
      "geometry": {
        "type": "Polygon",
        "coordinates": [
          [
            [
              10.124416351318361,
              35.033299584494074
            ],
            [
              10.145788192749025,
              35.028169000988484
            ],
            [
              10.14389991760254,
              35.0207888298361
            ],
            [
              10.140981674194338,
              35.02114028166495
            ],
            [
              10.138492584228517,
              35.01284561564833
            ],
            [
              10.120296478271486,
              35.01460303038599
            ],
            [
              10.121841430664064,
              35.025006152075406
            ],
            [
              10.124416351318361,
              35.033299584494074
            ]
          ]
        ]
      },
      "properties": {
        "id": "parcel_1777666608727_pm8wx",
        "name": "Parcelle 23",
        "crop": "olivier",
        "systeme": "extensif",
        "area_ha": 367.63711614930213,
        "created_at": "2026-05-01T20:16:48.727Z",
        "gouvernorat": "ولاية صفاقس",
        "split": "train"
      }
    }
  ]
}