{
  "type": "FeatureCollection",
  "features": [
    {
      "type": "Feature",
      "geometry": {
        "type": "Polygon",
        "coordinates": [
          [
            [
              8.978576660156252,
              34.75941932435652
            ],
            [
              8.979091644287111,
              34.75832634270494
            ],
            [
              8.979048728942873,
              34.75748015342485
            ],
            [
              8.979821205139162,
              34.7553999012475
            ],
            [
              8.98037910461426,
              34.75413056908945
            ],
            [
              8.981580734252931,
              34.7526496569115
            ],
            [
              8.980679512023928,
              34.7520149721342
            ],
            [
              8.98235321044922,
              34.75028719441712
            ],
            [
              8.981580734252931,
              34.74993458227872
            ],
            [
              8.97960662841797,
              34.75159184623948
            ],
            [
              8.975229263305666,
              34.748700427939056
            ],
            [
              8.973684310913088,
              34.7494056612484
            ],
            [
              8.972783088684084,
              34.75018141093368
            ],
            [
              8.971409797668459,
              34.75088663159747
            ],
            [
              8.971281051635744,
              34.75194445130229
            ],
            [
              8.970336914062502,
              34.75314329725493
            ],
            [
              8.969993591308596,
              34.754095309584315
            ],
            [
              8.968791961669924,
              34.755082570037196
            ],
            [
              8.975529670715334,
              34.759348809847886
            ],
            [
              8.976473808288576,
              34.758114796197944
            ],
            [
              8.978576660156252,
              34.75941932435652
            ]
          ]
        ]
      },
      "properties": {
        "id": "parcel_1777662471199_933e1",
        "name": "Parcelle 6",
        "crop": "olivier",
        "systeme": "intensif",
        "area_ha": 81.67683945399635,
        "created_at": "2026-05-01T19:07:51.199Z",
        "gouvernorat": "ولاية سيدي بوزيد",
        "split": "train"
      }
    },
    {
      "type": "Feature",
      "geometry": {
        "type": "Polygon",
        "coordinates": [
          [
            [
              8.966485261917116,
              34.75465945985984
            ],
            [
              8.959211111068727,
              34.749555522550885
            ],
            [
              8.96314859390259,
              34.7450771968785
            ],
            [
              8.97112011909485,
              34.75071032699604
            ],
            [
              8.970733880996706,
              34.75152132504626
            ],
            [
              8.970154523849489,
              34.75257032158108
            ],
            [
              8.969221115112306,
              34.753451820971115
            ],
            [
              8.968191146850588,
              34.754077679826096
            ],
            [
              8.96711826324463,
              34.75331078170102
            ],
            [
              8.96639943122864,
              34.75386612243397
            ],
            [
              8.966978788375856,
              34.75432449609857
            ],
            [
              8.966485261917116,
              34.75465945985984
            ]
          ]
        ]
      },
      "properties": {
        "id": "parcel_1777662498867_hce6r",
        "name": "Parcelle 7",
        "crop": "olivier",
        "systeme": "intensif",
        "area_ha": 58.29151952127791,
        "created_at": "2026-05-01T19:08:18.867Z",
        "gouvernorat": "ولاية سيدي بوزيد",
        "split": "train"
      }
    },
    {
      "type": "Feature",
      "geometry": {
        "type": "Polygon",
        "coordinates": [
          [
            [
              8.971956968307497,
              34.74997865887833
            ],
            [
              8.972557783126833,
              34.74935276895908
            ],
            [
              8.964275121688845,
              34.74365783433324
            ],
            [
              8.963663578033449,
              34.74427495147986
            ],
            [
              8.971956968307497,
              34.74997865887833
            ]
          ]
        ]
      },
      "properties": {
        "id": "parcel_1777662509830_ph4tb",
        "name": "Parcelle 8",
        "crop": "olivier",
        "systeme": "intensif",
        "area_ha": 8.74310119685055,
        "created_at": "2026-05-01T19:08:29.830Z",
        "gouvernorat": "ولاية سيدي بوزيد",
        "split": "train"
      }
    },
    {
      "type": "Feature",
      "geometry": {
        "type": "Polygon",
        "coordinates": [
          [
            [
              8.974210023880007,
              34.747739537863566
            ],
            [
              8.97539019584656,
              34.74699902779341
            ],
            [
              8.975572586059572,
              34.74631140535535
            ],
            [
              8.97138833999634,
              34.743869417874286
            ],
            [
              8.9713990688324,
              34.74365783433324
            ],
            [
              8.971195220947267,
              34.742926103742846
            ],
            [
              8.966968059539797,
              34.740298873034156
            ],
            [
              8.964360952377321,
              34.74348151430177
            ],
            [
              8.969542980194094,
              34.747228234000715
            ],
            [
              8.971216678619387,
              34.745729566513795
            ],
            [
              8.974210023880007,
              34.747739537863566
            ]
          ]
        ]
      },
      "properties": {
        "id": "parcel_1777662532453_yoau8",
        "name": "Parcelle 9",
        "crop": "olivier",
        "systeme": "intensif",
        "area_ha": 35.54726370316011,
        "created_at": "2026-05-01T19:08:52.453Z",
        "gouvernorat": "ولاية سيدي بوزيد",
        "split": "train"
      }
    },
    {
      "type": "Feature",
      "geometry": {
        "type": "Polygon",
        "coordinates": [
          [
            [
              8.975690603256227,
              34.746135090987664
            ],
            [
              8.97712826728821,
              34.743869417874286
            ],
            [
              8.978565931320192,
              34.74125103341326
            ],
            [
              8.979831933975222,
              34.738826529363955
            ],
            [
              8.979145288467409,
              34.73804185645133
            ],
            [
              8.97887706756592,
              34.737953690489874
            ],
            [
              8.978404998779299,
              34.73832398689585
            ],
            [
              8.978061676025392,
              34.738288720642984
            ],
            [
              8.977696895599367,
              34.73809475598306
            ],
            [
              8.97736430168152,
              34.737874341044105
            ],
            [
              8.976945877075197,
              34.73819173836994
            ],
            [
              8.976795673370363,
              34.738597299845345
            ],
            [
              8.97713899612427,
              34.73946131548109
            ],
            [
              8.97664546966553,
              34.740078463974946
            ],
            [
              8.976280689239504,
              34.74028124033105
            ],
            [
              8.975679874420168,
              34.740157811303995
            ],
            [
              8.975701332092287,
              34.74054573048242
            ],
            [
              8.975089788436891,
              34.741330379616215
            ],
            [
              8.974800109863283,
              34.7414802555694
            ],
            [
              8.97485375404358,
              34.74169184468751
            ],
            [
              8.973834514617922,
              34.74227371196817
            ],
            [
              8.973577022552492,
              34.742608724604075
            ],
            [
              8.973222970962526,
              34.74303189651814
            ],
            [
              8.972665071487429,
              34.74316413729675
            ],
            [
              8.972074985504152,
              34.743340458005626
            ],
            [
              8.971806764602663,
              34.743613754360666
            ],
            [
              8.971667289733888,
              34.74395757752311
            ],
            [
              8.975690603256227,
              34.746135090987664
            ]
          ]
        ]
      },
      "properties": {
        "id": "parcel_1777662559509_oh30t",
        "name": "Parcelle 10",
        "crop": "olivier",
        "systeme": "intensif",
        "area_ha": 27.05542478094186,
        "created_at": "2026-05-01T19:09:19.509Z",
        "gouvernorat": "ولاية سيدي بوزيد",
        "split": "train"
      }
    },
    {
      "type": "Feature",
      "geometry": {
        "type": "Polygon",
        "coordinates": [
          [
            [
              8.972976207733156,
              34.74265280511292
            ],
            [
              8.974510431289675,
              34.741259849661816
            ],
            [
              8.975304365158083,
              34.73987568712117
            ],
            [
              8.975057601928713,
              34.73962001124835
            ],
            [
              8.975508213043215,
              34.73904694176287
            ],
            [
              8.975915908813478,
              34.7389764098592
            ],
            [
              8.975969552993776,
              34.73769800866962
            ],
            [
              8.975068330764772,
              34.73728362610834
            ],
            [
              8.974467515945436,
              34.73684279131507
            ],
            [
              8.973845243453981,
              34.736595922803566
            ],
            [
              8.97289037704468,
              34.73626088578684
            ],
            [
              8.971838951110842,
              34.73645485475158
            ],
            [
              8.970025777816774,
              34.73697504200001
            ],
            [
              8.969693183898928,
              34.73706320900569
            ],
            [
              8.9688777923584,
              34.738059489632334
            ],
            [
              8.967365026474,
              34.73982278872963
            ],
            [
              8.968834877014162,
              34.74064270999242
            ],
            [
              8.969253301620485,
              34.74036058746535
            ],
            [
              8.972976207733156,
              34.74265280511292
            ]
          ]
        ]
      },
      "properties": {
        "id": "parcel_1777662581023_xa3jy",
        "name": "Parcelle 11",
        "crop": "olivier",
        "systeme": "intensif",
        "area_ha": 33.253440495313846,
        "created_at": "2026-05-01T19:09:41.023Z",
        "gouvernorat": "ولاية سيدي بوزيد",
        "split": "train"
      }
    },
    {
      "type": "Feature",
      "geometry": {
        "type": "Polygon",
        "coordinates": [
          [
            [
              8.83081912994385,
              34.66840555708022
            ],
            [
              8.829660415649416,
              34.669958569206614
            ],
            [
              8.828201293945314,
              34.672640976121784
            ],
            [
              8.82579803466797,
              34.674052734344656
            ],
            [
              8.82730007171631,
              34.675429175443895
            ],
            [
              8.827857971191408,
              34.67511153722056
            ],
            [
              8.829488754272463,
              34.67673500867446
            ],
            [
              8.830947875976564,
              34.675358589277344
            ],
            [
              8.833007812500002,
              34.673840972145214
            ],
            [
              8.834681510925295,
              34.672005677071084
            ],
            [
              8.836269378662111,
              34.673770384625094
            ],
            [
              8.834595680236818,
              34.67571151950864
            ],
            [
              8.835325241088869,
              34.67624091203565
            ],
            [
              8.836827278137209,
              34.67489977772823
            ],
            [
              8.837342262268068,
              34.67595856977569
            ],
            [
              8.83755683898926,
              34.67680559366795
            ],
            [
              8.836998939514162,
              34.677793777259886
            ],
            [
              8.837943077087404,
              34.67835844830407
            ],
            [
              8.839144706726076,
              34.67775848519178
            ],
            [
              8.839702606201174,
              34.678781949060436
            ],
            [
              8.83854389190674,
              34.67959365278979
            ],
            [
              8.840003013610842,
              34.680970001799125
            ],
            [
              8.840732574462892,
              34.68174639371215
            ],
            [
              8.841590881347658,
              34.68164052251631
            ],
            [
              8.84377956390381,
              34.6790642816948
            ],
            [
              8.841848373413088,
              34.67638208280467
            ],
            [
              8.839230537414553,
              34.67387626588273
            ],
            [
              8.839659690856935,
              34.67327627029983
            ],
            [
              8.840517997741701,
              34.67317038827519
            ],
            [
              8.842706680297853,
              34.67539388236814
            ],
            [
              8.844637870788576,
              34.67341744612211
            ],
            [
              8.842577934265138,
              34.67165273104858
            ],
            [
              8.843264579772951,
              34.67020563663329
            ],
            [
              8.84480953216553,
              34.670170341331726
            ],
            [
              8.84678363800049,
              34.670982129462615
            ],
            [
              8.846011161804201,
              34.67246450465203
            ],
            [
              8.847126960754396,
              34.67415861524134
            ],
            [
              8.847384452819826,
              34.6752174167637
            ],
            [
              8.848843574523928,
              34.6741939088435
            ],
            [
              8.850345611572267,
              34.673099800183586
            ],
            [
              8.85103225708008,
              34.67440567014055
            ],
            [
              8.851375579833986,
              34.67606444823597
            ],
            [
              8.851375579833986,
              34.67804082131546
            ],
            [
              8.851804733276369,
              34.67899369862646
            ],
            [
              8.856439590454103,
              34.674052734344656
            ],
            [
              8.855581283569338,
              34.673523327830935
            ],
            [
              8.85326385498047,
              34.67147625747337
            ],
            [
              8.855195045471193,
              34.665687715803934
            ],
            [
              8.854465484619142,
              34.66501706593038
            ],
            [
              8.852148056030275,
              34.665228850687434
            ],
            [
              8.850989341735842,
              34.66416992148863
            ],
            [
              8.851075172424318,
              34.66318157535943
            ],
            [
              8.85154724121094,
              34.66236971079113
            ],
            [
              8.852233886718752,
              34.661840229613205
            ],
            [
              8.853650093078615,
              34.66198142492478
            ],
            [
              8.854894638061525,
              34.66042826326488
            ],
            [
              8.856310844421388,
              34.65739245414825
            ],
            [
              8.855924606323244,
              34.65612161731262
            ],
            [
              8.854422569274904,
              34.65470955352982
            ],
            [
              8.853693008422853,
              34.65379169917053
            ],
            [
              8.852190971374513,
              34.65435653382524
            ],
            [
              8.85025978088379,
              34.65269732107385
            ],
            [
              8.84755611419678,
              34.65396821041359
            ],
            [
              8.845968246459963,
              34.654285929703896
            ],
            [
              8.844423294067385,
              34.656192219870285
            ],
            [
              8.842449188232424,
              34.65516847689798
            ],
            [
              8.842964172363283,
              34.656898242138816
            ],
            [
              8.845152854919435,
              34.65806316573296
            ],
            [
              8.8445520401001,
              34.65873387188964
            ],
            [
              8.84180545806885,
              34.66046356271682
            ],
            [
              8.840432167053224,
              34.66261680084964
            ],
            [
              8.839359283447267,
              34.663922836061566
            ],
            [
              8.837857246398928,
              34.66476998302959
            ],
            [
              8.836655616760256,
              34.663852240089945
            ],
            [
              8.83528232574463,
              34.66554652680797
            ],
            [
              8.835582733154299,
              34.66632306330818
            ],
            [
              8.834252357482912,
              34.66717018573479
            ],
            [
              8.830175399780275,
              34.66476998302959
            ],
            [
              8.828716278076174,
              34.665758310211665
            ],
            [
              8.83081912994385,
              34.66840555708022
            ]
          ]
        ]
      },
      "properties": {
        "id": "parcel_1777662650200_lx0g1",
        "name": "Parcelle 12",
        "crop": "olivier",
        "systeme": "intensif",
        "area_ha": 402.06179939179646,
        "created_at": "2026-05-01T19:10:50.200Z",
        "gouvernorat": "ولاية قفصة",
        "split": "train"
      }
    },
    {
      "type": "Feature",
      "geometry": {
        "type": "Polygon",
        "coordinates": [
          [
            [
              8.804726600646974,
              34.65559209621326
            ],
            [
              8.81056308746338,
              34.64782539809645
            ],
            [
              8.806872367858888,
              34.642670733114606
            ],
            [
              8.808674812316896,
              34.64203520428374
            ],
            [
              8.802409172058107,
              34.63250168736153
            ],
            [
              8.796916007995607,
              34.63433785730249
            ],
            [
              8.798160552978517,
              34.635891507813895
            ],
            [
              8.797903060913088,
              34.63680956034629
            ],
            [
              8.796057701110842,
              34.64090536322469
            ],
            [
              8.804726600646974,
              34.65559209621326
            ]
          ]
        ]
      },
      "properties": {
        "id": "parcel_1777662674673_x7v1z",
        "name": "Parcelle 13",
        "crop": "olivier",
        "systeme": "intensif",
        "area_ha": 177.95771135487206,
        "created_at": "2026-05-01T19:11:14.673Z",
        "gouvernorat": "ولاية قفصة",
        "split": "train"
      }
    },
    {
      "type": "Feature",
      "geometry": {
        "type": "Polygon",
        "coordinates": [
          [
            [
              8.81957530975342,
              34.64281196108223
            ],
            [
              8.816142082214357,
              34.645283411579584
            ],
            [
              8.810734748840334,
              34.63755105689653
            ],
            [
              8.812923431396486,
              34.636103366992494
            ],
            [
              8.81957530975342,
              34.64281196108223
            ]
          ]
        ]
      },
      "properties": {
        "id": "parcel_1777662687780_8zuuk",
        "name": "Parcelle 14",
        "crop": "olivier",
        "systeme": "intensif",
        "area_ha": 32.665823337753025,
        "created_at": "2026-05-01T19:11:27.780Z",
        "gouvernorat": "ولاية قفصة",
        "split": "train"
      }
    },
    {
      "type": "Feature",
      "geometry": {
        "type": "Polygon",
        "coordinates": [
          [
            [
              8.832106590270998,
              34.62639259867496
            ],
            [
              8.834252357482912,
              34.62621602872965
            ],
            [
              8.833522796630861,
              34.62699293367839
            ],
            [
              8.839402198791506,
              34.62868797377061
            ],
            [
              8.84077548980713,
              34.62540380214169
            ],
            [
              8.844251632690431,
              34.62847609565288
            ],
            [
              8.844680786132814,
              34.628334843273805
            ],
            [
              8.848972320556642,
              34.632431064629024
            ],
            [
              8.850688934326174,
              34.63048891592454
            ],
            [
              8.844337463378908,
              34.62476814100514
            ],
            [
              8.846697807312013,
              34.6223667105433
            ],
            [
              8.843607902526857,
              34.61961204296762
            ],
            [
              8.843135833740236,
              34.620706857696135
            ],
            [
              8.841419219970705,
              34.62031837670369
            ],
            [
              8.839702606201174,
              34.623461488931966
            ],
            [
              8.836269378662111,
              34.622578604261854
            ],
            [
              8.836698532104494,
              34.621766342069265
            ],
            [
              8.835196495056154,
              34.621060020656735
            ],
            [
              8.833909034729006,
              34.620000527266356
            ],
            [
              8.834338188171388,
              34.619011654565476
            ],
            [
              8.830733299255373,
              34.61689260196024
            ],
            [
              8.829360008239748,
              34.61717514543344
            ],
            [
              8.82931709289551,
              34.61858784837255
            ],
            [
              8.829488754272463,
              34.619435458594324
            ],
            [
              8.827214241027834,
              34.621695710198516
            ],
            [
              8.832106590270998,
              34.62639259867496
            ]
          ]
        ]
      },
      "properties": {
        "id": "parcel_1777662715410_fr6g1",
        "name": "Parcelle 15",
        "crop": "olivier",
        "systeme": "intensif",
        "area_ha": 128.78852899505316,
        "created_at": "2026-05-01T19:11:55.410Z",
        "gouvernorat": "ولاية قفصة",
        "split": "train"
      }
    },
    {
      "type": "Feature",
      "geometry": {
        "type": "Polygon",
        "coordinates": [
          [
            [
              8.775758743286135,
              34.69032151100285
            ],
            [
              8.775758743286135,
              34.685310644976376
            ],
            [
              8.778076171875002,
              34.685310644976376
            ],
            [
              8.797988891601564,
              34.65799256476914
            ],
            [
              8.776016235351564,
              34.654956666428426
            ],
            [
              8.773441314697267,
              34.65876917206332
            ],
            [
              8.772325515747072,
              34.66286389017133
            ],
            [
              8.771038055419924,
              34.66928795390546
            ],
            [
              8.770179748535158,
              34.674299789559704
            ],
            [
              8.766918182373049,
              34.68022889363677
            ],
            [
              8.76511573791504,
              34.68298154766138
            ],
            [
              8.761854171752931,
              34.68495775565538
            ],
            [
              8.76091003417969,
              34.68792197920216
            ],
            [
              8.760995864868166,
              34.68982749543577
            ],
            [
              8.775758743286135,
              34.69032151100285
            ]
          ]
        ]
      },
      "properties": {
        "id": "parcel_1777666827849_immef",
        "name": "Parcelle 19",
        "crop": "olivier",
        "systeme": "intensif",
        "area_ha": 615.6273959080931,
        "created_at": "2026-05-01T20:20:27.849Z",
        "gouvernorat": "ولاية قفصة",
        "split": "train"
      }
    },
    {
      "type": "Feature",
      "geometry": {
        "type": "Polygon",
        "coordinates": [
          [
            [
              9.906835556030275,
              34.367563115186265
            ],
            [
              9.905033111572267,
              34.36752769142838
            ],
            [
              9.904260635375978,
              34.36837785748377
            ],
            [
              9.902071952819826,
              34.36774023375102
            ],
            [
              9.900956153869629,
              34.36689006122521
            ],
            [
              9.897093772888185,
              34.36575648443747
            ],
            [
              9.892673492431642,
              34.36451661726485
            ],
            [
              9.888553619384767,
              34.36341843387601
            ],
            [
              9.884648323059084,
              34.36235566205383
            ],
            [
              9.885592460632326,
              34.361611713758236
            ],
            [
              9.887652397155762,
              34.360938611990186
            ],
            [
              9.887094497680666,
              34.35902555639409
            ],
            [
              9.888768196105959,
              34.35767930590749
            ],
            [
              9.891514778137209,
              34.357006172554755
            ],
            [
              9.892287254333498,
              34.35530560105661
            ],
            [
              9.895033836364748,
              34.35452616092226
            ],
            [
              9.896836280822756,
              34.35555360321573
            ],
            [
              9.897265434265138,
              34.35162091111347
            ],
            [
              9.891386032104494,
              34.35335698713078
            ],
            [
              9.891643524169924,
              34.35052255873809
            ],
            [
              9.890441894531252,
              34.34694395601983
            ],
            [
              9.890828132629396,
              34.34552664539057
            ],
            [
              9.893789291381838,
              34.34559751149102
            ],
            [
              9.895806312561037,
              34.34531404672985
            ],
            [
              9.897351264953615,
              34.34637703464301
            ],
            [
              9.89945411682129,
              34.34658963060853
            ],
            [
              9.901771545410158,
              34.34768803450962
            ],
            [
              9.903101921081545,
              34.34928246618022
            ],
            [
              9.903016090393068,
              34.352648389017425
            ],
            [
              9.905376434326174,
              34.35236494809489
            ],
            [
              9.906835556030275,
              34.367563115186265
            ]
          ]
        ]
      },
      "properties": {
        "id": "parcel_1777667140912_3xckb",
        "name": "Parcelle 21",
        "crop": "olivier",
        "systeme": "intensif",
        "area_ha": 294.60529504069433,
        "created_at": "2026-05-01T20:25:40.912Z",
        "gouvernorat": "ولاية صفاقس",
        "split": "train"
      }
    },
    {
      "type": "Feature",
      "geometry": {
        "type": "Polygon",
        "coordinates": [
          [
            [
              9.898037910461426,
              34.34074304514715
            ],
            [
              9.903273582458498,
              34.33907757954326
            ],
            [
              9.904046058654787,
              34.33790819031363
            ],
            [
              9.905161857604982,
              34.33854604100554
            ],
            [
              9.905333518981935,
              34.334577113445455
            ],
            [
              9.900398254394533,
              34.33237994779142
            ],
            [
              9.899883270263674,
              34.33549848836709
            ],
            [
              9.895548820495605,
              34.33627810539596
            ],
            [
              9.898037910461426,
              34.34074304514715
            ]
          ]
        ]
      },
      "properties": {
        "id": "parcel_1777667155941_ci6fx",
        "name": "Parcelle 22",
        "crop": "olivier",
        "systeme": "intensif",
        "area_ha": 46.166828108993165,
        "created_at": "2026-05-01T20:25:55.941Z",
        "gouvernorat": "ولاية صفاقس",
        "split": "train"
      }
    },
    {
      "type": "Feature",
      "geometry": {
        "type": "Polygon",
        "coordinates": [
          [
            [
              9.905934333801271,
              34.34499514772807
            ],
            [
              9.908552169799806,
              34.34396757602767
            ],
            [
              9.91044044494629,
              34.34449908020352
            ],
            [
              9.910311698913576,
              34.34786519508152
            ],
            [
              9.916920661926271,
              34.34945962338296
            ],
            [
              9.917778968811037,
              34.34726284760975
            ],
            [
              9.918251037597658,
              34.34860926539563
            ],
            [
              9.91996765136719,
              34.3463416019297
            ],
            [
              9.9212121963501,
              34.34623530369989
            ],
            [
              9.919624328613283,
              34.34577467648012
            ],
            [
              9.91893768310547,
              34.344215611728984
            ],
            [
              9.91795063018799,
              34.34336520055575
            ],
            [
              9.917092323303224,
              34.342479346412794
            ],
            [
              9.91644859313965,
              34.34180609100551
            ],
            [
              9.91417407989502,
              34.34099109038605
            ],
            [
              9.910740852355959,
              34.33964455027043
            ],
            [
              9.910912513732912,
              34.33500236466686
            ],
            [
              9.90773677825928,
              34.334364487026306
            ],
            [
              9.907393455505373,
              34.335640237456765
            ],
            [
              9.908380508422853,
              34.33691596848441
            ],
            [
              9.90747928619385,
              34.338227116265955
            ],
            [
              9.90546226501465,
              34.33882952864488
            ],
            [
              9.905934333801271,
              34.34499514772807
            ]
          ]
        ]
      },
      "properties": {
        "id": "parcel_1777667189888_bwda5",
        "name": "Parcelle 23",
        "crop": "olivier",
        "systeme": "intensif",
        "area_ha": 105.58105517579072,
        "created_at": "2026-05-01T20:26:29.888Z",
        "gouvernorat": "ولاية صفاقس",
        "split": "train"
      }
    },
    {
      "type": "Feature",
      "geometry": {
        "type": "Polygon",
        "coordinates": [
          [
            [
              9.374084472656252,
              36.54965551204536
            ],
            [
              9.374352693557741,
              36.54630268159773
            ],
            [
              9.374674558639528,
              36.54619063076808
            ],
            [
              9.374910593032839,
              36.54542350918732
            ],
            [
              9.375189542770388,
              36.545027016397384
            ],
            [
              9.375822544097902,
              36.54527697948012
            ],
            [
              9.376766681671144,
              36.54554418050233
            ],
            [
              9.377753734588625,
              36.54567347098797
            ],
            [
              9.378687143325807,
              36.54563037418347
            ],
            [
              9.3793523311615,
              36.54508735238791
            ],
            [
              9.380017518997194,
              36.5447425746649
            ],
            [
              9.380789995193483,
              36.54538041224344
            ],
            [
              9.3813693523407,
              36.54569070970304
            ],
            [
              9.381798505783083,
              36.54562175481967
            ],
            [
              9.382925033569338,
              36.54453570729298
            ],
            [
              9.384201765060427,
              36.5437685692894
            ],
            [
              9.384480714797975,
              36.545432128573204
            ],
            [
              9.385499954223635,
              36.545552799874784
            ],
            [
              9.386304616928102,
              36.54567347098797
            ],
            [
              9.38759207725525,
              36.545751045175564
            ],
            [
              9.388740062713625,
              36.5460613411474
            ],
            [
              9.389823675155641,
              36.54631130088557
            ],
            [
              9.39060688018799,
              36.54716460562641
            ],
            [
              9.39110040664673,
              36.54745765760681
            ],
            [
              9.391293525695803,
              36.54835404500289
            ],
            [
              9.391454458236696,
              36.548836710833484
            ],
            [
              9.39211964607239,
              36.54951760929078
            ],
            [
              9.391561746597292,
              36.55045706693487
            ],
            [
              9.390306472778322,
              36.5505777303919
            ],
            [
              9.386701583862306,
              36.550474304583105
            ],
            [
              9.384512901306154,
              36.55015540746813
            ],
            [
              9.384759664535524,
              36.5491728513279
            ],
            [
              9.383836984634401,
              36.548965995812026
            ],
            [
              9.382528066635134,
              36.5487160446584
            ],
            [
              9.3823778629303,
              36.54963827421451
            ],
            [
              9.37912702560425,
              36.54944003888321
            ],
            [
              9.37660574913025,
              36.5494228010043
            ],
            [
              9.374084472656252,
              36.54965551204536
            ]
          ]
        ]
      },
      "properties": {
        "id": "parcel_1777667281825_3deuj",
        "name": "Parcelle 24",
        "crop": "olivier",
        "systeme": "intensif",
        "area_ha": 72.88069155529948,
        "created_at": "2026-05-01T20:28:01.825Z",
        "gouvernorat": "ولاية باجة",
        "split": "train"
      }
    },
    {
      "type": "Feature",
      "geometry": {
        "type": "Polygon",
        "coordinates": [
          [
            [
              9.3708872795105,
              36.55121551982104
            ],
            [
              9.370951652526857,
              36.552560031645
            ],
            [
              9.376734495162966,
              36.55249970148749
            ],
            [
              9.377989768981935,
              36.54965551204536
            ],
            [
              9.376294612884523,
              36.54960379854123
            ],
            [
              9.375844001770021,
              36.549707225514894
            ],
            [
              9.375554323196413,
              36.55043121045529
            ],
            [
              9.374921321868898,
              36.550629443244375
            ],
            [
              9.374459981918337,
              36.55041397279743
            ],
            [
              9.374095201492311,
              36.55000888673088
            ],
            [
              9.373033046722414,
              36.54973308223668
            ],
            [
              9.372260570526125,
              36.54919870822846
            ],
            [
              9.371477365493776,
              36.548491949833476
            ],
            [
              9.371048212051393,
              36.54844023555084
            ],
            [
              9.371005296707155,
              36.548922900843216
            ],
            [
              9.371434450149538,
              36.54908666159689
            ],
            [
              9.37163829803467,
              36.549448657821245
            ],
            [
              9.3713915348053,
              36.54969860660571
            ],
            [
              9.370930194854738,
              36.54965551204536
            ],
            [
              9.370726346969606,
              36.549681368784455
            ],
            [
              9.3708872795105,
              36.55121551982104
            ]
          ]
        ]
      },
      "properties": {
        "id": "parcel_1777667302238_zjnhu",
        "name": "Parcelle 25",
        "crop": "olivier",
        "systeme": "intensif",
        "area_ha": 18.077181996645837,
        "created_at": "2026-05-01T20:28:22.238Z",
        "gouvernorat": "ولاية باجة",
        "split": "train"
      }
    },
    {
      "type": "Feature",
      "geometry": {
        "type": "Polygon",
        "coordinates": [
          [
            [
              9.3554162979126,
              36.54905218567758
            ],
            [
              9.355083703994753,
              36.54581999994362
            ],
            [
              9.356456995010378,
              36.544751194126704
            ],
            [
              9.357358217239382,
              36.54298418435847
            ],
            [
              9.357808828353884,
              36.54170846439671
            ],
            [
              9.358302354812624,
              36.54080338003719
            ],
            [
              9.358956813812258,
              36.54102749715129
            ],
            [
              9.35888171195984,
              36.54188947999715
            ],
            [
              9.359525442123415,
              36.54246700312735
            ],
            [
              9.360201358795168,
              36.54253596082474
            ],
            [
              9.360308647155763,
              36.54344964450836
            ],
            [
              9.360995292663576,
              36.544389175902936
            ],
            [
              9.361349344253542,
              36.545009777534304
            ],
            [
              9.361531734466555,
              36.545294218283615
            ],
            [
              9.36189651489258,
              36.54499253866738
            ],
            [
              9.362529516220095,
              36.54494082204353
            ],
            [
              9.363023042678835,
              36.545449367342115
            ],
            [
              9.364171028137209,
              36.54618201146675
            ],
            [
              9.364449977874758,
              36.546862933309626
            ],
            [
              9.364525079727175,
              36.54763004060569
            ],
            [
              9.364514350891115,
              36.54902632872802
            ],
            [
              9.359503984451296,
              36.54894013883363
            ],
            [
              9.35662865638733,
              36.54894013883363
            ],
            [
              9.3554162979126,
              36.54905218567758
            ]
          ]
        ]
      },
      "properties": {
        "id": "parcel_1777667330430_52762",
        "name": "Parcelle 26",
        "crop": "olivier",
        "systeme": "intensif",
        "area_ha": 45.633484593938114,
        "created_at": "2026-05-01T20:28:50.430Z",
        "gouvernorat": "ولاية باجة",
        "split": "train"
      }
    },
    {
      "type": "Feature",
      "geometry": {
        "type": "Polygon",
        "coordinates": [
          [
            [
              10.367789268493654,
              34.97143000072404
            ],
            [
              10.368819236755373,
              34.97304764199122
            ],
            [
              10.375771522521974,
              34.9732234706388
            ],
            [
              10.386972427368166,
              34.9841944316028
            ],
            [
              10.411691665649416,
              35.00047234721342
            ],
            [
              10.408945083618166,
              35.006202246786415
            ],
            [
              10.406284332275392,
              35.00803010577839
            ],
            [
              10.380191802978517,
              35.02149173198311
            ],
            [
              10.373282432556154,
              35.019347861543686
            ],
            [
              10.370793342590334,
              35.00377675545703
            ],
            [
              10.361266136169435,
              35.00890886960201
            ],
            [
              10.350794792175295,
              35.01527083808459
            ],
            [
              10.3441858291626,
              35.00078873250306
            ],
            [
              10.348520278930666,
              34.99794122085656
            ],
            [
              10.344486236572267,
              34.992984204957644
            ],
            [
              10.33967971801758,
              34.99502329749336
            ],
            [
              10.333242416381838,
              34.987358858734595
            ],
            [
              10.367789268493654,
              34.97143000072404
            ]
          ]
        ]
      },
      "properties": {
        "id": "parcel_1777666032243_cm5hf",
        "name": "Parcelle 2",
        "crop": "olivier",
        "systeme": "extensif",
        "area_ha": 2104.0940821600525,
        "created_at": "2026-05-01T20:07:12.243Z",
        "gouvernorat": "ولاية صفاقس",
        "split": "train"
      }
    },
    {
      "type": "Feature",
      "geometry": {
        "type": "Polygon",
        "coordinates": [
          [
            [
              10.333542823791506,
              34.98746433753251
            ],
            [
              10.285391807556152,
              35.00887371923034
            ],
            [
              10.256080627441406,
              35.0196993195663
            ],
            [
              10.28951168060303,
              35.05230804828909
            ],
            [
              10.305776596069338,
              35.04341924328843
            ],
            [
              10.302429199218752,
              35.0394488321224
            ],
            [
              10.319595336914064,
              35.03112088289652
            ],
            [
              10.322771072387697,
              35.03463488902387
            ],
            [
              10.333628654479982,
              35.02876641426462
            ],
            [
              10.343112945556642,
              35.02370583424884
            ],
            [
              10.351781845092775,
              35.01709849442701
            ],
            [
              10.333542823791506,
              34.98746433753251
            ]
          ]
        ]
      },
      "properties": {
        "id": "parcel_1777666069829_t5ehp",
        "name": "Parcelle 3",
        "crop": "olivier",
        "systeme": "extensif",
        "area_ha": 2988.389915036504,
        "created_at": "2026-05-01T20:07:49.829Z",
        "gouvernorat": "ولاية صفاقس",
        "split": "train"
      }
    },
    {
      "type": "Feature",
      "geometry": {
        "type": "Polygon",
        "coordinates": [
          [
            [
              10.386843681335451,
              35.092032339035605
            ],
            [
              10.386199951171877,
              35.09140027364227
            ],
            [
              10.40061950683594,
              35.06481397751247
            ],
            [
              10.402379035949709,
              35.061898440531564
            ],
            [
              10.405640602111818,
              35.064076321369214
            ],
            [
              10.40958881378174,
              35.06751865967421
            ],
            [
              10.415039062500002,
              35.07254140305869
            ],
            [
              10.412807464599611,
              35.07436777855785
            ],
            [
              10.41285037994385,
              35.07559704674357
            ],
            [
              10.409717559814455,
              35.07756383732175
            ],
            [
              10.412936210632326,
              35.083288332922834
            ],
            [
              10.419459342956545,
              35.08788871002626
            ],
            [
              10.417356491088869,
              35.089468932364404
            ],
            [
              10.409717559814455,
              35.090487281647555
            ],
            [
              10.405769348144533,
              35.093331569181274
            ],
            [
              10.386843681335451,
              35.092032339035605
            ]
          ]
        ]
      },
      "properties": {
        "id": "parcel_1777666127269_tb54q",
        "name": "Parcelle 5",
        "crop": "olivier",
        "systeme": "extensif",
        "area_ha": 555.0980749596731,
        "created_at": "2026-05-01T20:08:47.269Z",
        "gouvernorat": "ولاية صفاقس",
        "split": "train"
      }
    },
    {
      "type": "Feature",
      "geometry": {
        "type": "Polygon",
        "coordinates": [
          [
            [
              10.525331497192385,
              35.039659655264934
            ],
            [
              10.534000396728516,
              35.04717865830446
            ],
            [
              10.550780296325685,
              35.0548726224782
            ],
            [
              10.561251640319826,
              35.0585261233151
            ],
            [
              10.562624931335451,
              35.05757763400087
            ],
            [
              10.564727783203127,
              35.058736897221976
            ],
            [
              10.564684867858888,
              35.059720501593084
            ],
            [
              10.56833267211914,
              35.06080947832481
            ],
            [
              10.573010444641115,
              35.059298958313576
            ],
            [
              10.577216148376467,
              35.05539957980261
            ],
            [
              10.579361915588379,
              35.0502001187922
            ],
            [
              10.58262348175049,
              35.043103022922324
            ],
            [
              10.587430000305176,
              35.039378557620665
            ],
            [
              10.593652725219728,
              35.03565392253886
            ],
            [
              10.586657524108888,
              35.016571290058614
            ],
            [
              10.572752952575685,
              35.019277569757875
            ],
            [
              10.563011169433594,
              35.021808035977806
            ],
            [
              10.5564022064209,
              35.022510929362774
            ],
            [
              10.54940700531006,
              35.02430328014285
            ],
            [
              10.540480613708498,
              35.026271306325526
            ],
            [
              10.539579391479492,
              35.028731272428075
            ],
            [
              10.537519454956056,
              35.03020721655492
            ],
            [
              10.536446571350098,
              35.033088744942326
            ],
            [
              10.534901618957521,
              35.03459974971053
            ],
            [
              10.533013343811037,
              35.03431863465965
            ],
            [
              10.53219795227051,
              35.032526503478394
            ],
            [
              10.525331497192385,
              35.039659655264934
            ]
          ]
        ]
      },
      "properties": {
        "id": "parcel_1777666170696_fk7cq",
        "name": "Parcelle 6",
        "crop": "olivier",
        "systeme": "extensif",
        "area_ha": 1807.1164396063298,
        "created_at": "2026-05-01T20:09:30.696Z",
        "gouvernorat": "ولاية صفاقس",
        "split": "train"
      }
    },
    {
      "type": "Feature",
      "geometry": {
        "type": "Polygon",
        "coordinates": [
          [
            [
              10.615110397338869,
              35.04552734778223
            ],
            [
              10.620002746582033,
              35.0348457245868
            ],
            [
              10.609531402587892,
              35.025779304221516
            ],
            [
              10.607213973999025,
              35.02704444650624
            ],
            [
              10.602836608886719,
              35.0246547168645
            ],
            [
              10.596570968627931,
              35.02662273458687
            ],
            [
              10.606184005737305,
              35.0362512811053
            ],
            [
              10.609531402587892,
              35.0348457245868
            ],
            [
              10.610990524291992,
              35.038148744056585
            ],
            [
              10.614509582519533,
              35.0384298459317
            ],
            [
              10.612363815307619,
              35.04208408230533
            ],
            [
              10.615110397338869,
              35.04552734778223
            ]
          ]
        ]
      },
      "properties": {
        "id": "parcel_1777666196106_hhim9",
        "name": "Parcelle 7",
        "crop": "olivier",
        "systeme": "extensif",
        "area_ha": 189.6459480475336,
        "created_at": "2026-05-01T20:09:56.106Z",
        "gouvernorat": "ولاية صفاقس",
        "split": "train"
      }
    },
    {
      "type": "Feature",
      "geometry": {
        "type": "Polygon",
        "coordinates": [
          [
            [
              10.62755584716797,
              35.01324982438197
            ],
            [
              10.620410442352295,
              35.001667574111046
            ],
            [
              10.617556571960451,
              35.00273974808987
            ],
            [
              10.61257839202881,
              35.00491920598363
            ],
            [
              10.606527328491213,
              35.007731323927864
            ],
            [
              10.593459606170654,
              35.01397036543081
            ],
            [
              10.593717098236084,
              35.01458545642555
            ],
            [
              10.603544712066652,
              35.01404066177863
            ],
            [
              10.611677169799806,
              35.013513437697206
            ],
            [
              10.618607997894289,
              35.013636456953535
            ],
            [
              10.622363090515138,
              35.013531011888
            ],
            [
              10.62755584716797,
              35.01324982438197
            ]
          ]
        ]
      },
      "properties": {
        "id": "parcel_1777666217906_3lfgs",
        "name": "Parcelle 8",
        "crop": "olivier",
        "systeme": "extensif",
        "area_ha": 214.9880465862079,
        "created_at": "2026-05-01T20:10:17.906Z",
        "gouvernorat": "ولاية صفاقس",
        "split": "train"
      }
    },
    {
      "type": "Feature",
      "geometry": {
        "type": "Polygon",
        "coordinates": [
          [
            [
              10.634422302246094,
              35.01291591296292
            ],
            [
              10.62978744506836,
              35.00825858528068
            ],
            [
              10.639829635620117,
              35.00092934779467
            ],
            [
              10.641331672668459,
              35.002247604401404
            ],
            [
              10.646181106567385,
              35.01312680454406
            ],
            [
              10.634422302246094,
              35.01291591296292
            ]
          ]
        ]
      },
      "properties": {
        "id": "parcel_1777666232428_43q5u",
        "name": "Parcelle 9",
        "crop": "olivier",
        "systeme": "extensif",
        "area_ha": 117.86978313823562,
        "created_at": "2026-05-01T20:10:32.428Z",
        "gouvernorat": "ولاية صفاقس",
        "split": "train"
      }
    },
    {
      "type": "Feature",
      "geometry": {
        "type": "Polygon",
        "coordinates": [
          [
            [
              10.611076354980469,
              35.0217201738798
            ],
            [
              10.622255802154543,
              35.02488314992344
            ],
            [
              10.625710487365724,
              35.02569144639135
            ],
            [
              10.628199577331545,
              35.02268665176483
            ],
            [
              10.624637603759766,
              35.021368724543585
            ],
            [
              10.619552135467531,
              35.0185570754695
            ],
            [
              10.611076354980469,
              35.0217201738798
            ]
          ]
        ]
      },
      "properties": {
        "id": "parcel_1777666247763_3i29v",
        "name": "Parcelle 10",
        "crop": "olivier",
        "systeme": "extensif",
        "area_ha": 58.115115913749065,
        "created_at": "2026-05-01T20:10:47.763Z",
        "gouvernorat": "ولاية صفاقس",
        "split": "train"
      }
    },
    {
      "type": "Feature",
      "geometry": {
        "type": "Polygon",
        "coordinates": [
          [
            [
              10.625302791595459,
              35.03788521017039
            ],
            [
              10.62955141067505,
              35.036040449168695
            ],
            [
              10.629014968872072,
              35.03516197691125
            ],
            [
              10.631997585296633,
              35.03377397149678
            ],
            [
              10.630431175231935,
              35.033018464970844
            ],
            [
              10.62980890274048,
              35.032544073582685
            ],
            [
              10.628886222839357,
              35.03298332496246
            ],
            [
              10.628242492675783,
              35.032649494129146
            ],
            [
              10.628564357757568,
              35.031981828371734
            ],
            [
              10.628886222839357,
              35.03150743096642
            ],
            [
              10.62800645828247,
              35.03089246726864
            ],
            [
              10.627148151397707,
              35.03006665159585
            ],
            [
              10.626418590545656,
              35.02943410628853
            ],
            [
              10.623478889465334,
              35.02890698145975
            ],
            [
              10.6213116645813,
              35.03289547487537
            ],
            [
              10.622148513793947,
              35.03393209988579
            ],
            [
              10.62201976776123,
              35.03475787650168
            ],
            [
              10.621891021728516,
              35.03514440736976
            ],
            [
              10.622942447662354,
              35.03654995875098
            ],
            [
              10.623371601104736,
              35.037217587188024
            ],
            [
              10.62405824661255,
              35.03709460341213
            ],
            [
              10.625302791595459,
              35.03788521017039
            ]
          ]
        ]
      },
      "properties": {
        "id": "parcel_1777666273477_7e680",
        "name": "Parcelle 11",
        "crop": "olivier",
        "systeme": "extensif",
        "area_ha": 54.66463616439917,
        "created_at": "2026-05-01T20:11:13.477Z",
        "gouvernorat": "ولاية صفاقس",
        "split": "train"
      }
    },
    {
      "type": "Feature",
      "geometry": {
        "type": "Polygon",
        "coordinates": [
          [
            [
              10.63304901123047,
              35.034722737241204
            ],
            [
              10.635452270507814,
              35.03375640165691
            ],
            [
              10.637834072113039,
              35.03305360496414
            ],
            [
              10.636696815490724,
              35.03047077520164
            ],
            [
              10.63603162765503,
              35.030664051002425
            ],
            [
              10.634357929229738,
              35.02904754841315
            ],
            [
              10.634636878967285,
              35.028590704930764
            ],
            [
              10.635495185852053,
              35.02730801535109
            ],
            [
              10.633885860443115,
              35.02713230288228
            ],
            [
              10.631160736083986,
              35.02426813638757
            ],
            [
              10.63008785247803,
              35.02449657052671
            ],
            [
              10.630624294281006,
              35.025709017964935
            ],
            [
              10.629315376281738,
              35.02690387610819
            ],
            [
              10.627684593200685,
              35.028291998196394
            ],
            [
              10.626997947692871,
              35.02883669789241
            ],
            [
              10.627384185791016,
              35.03006665159585
            ],
            [
              10.628757476806642,
              35.03048834574785
            ],
            [
              10.629401206970215,
              35.03008422222896
            ],
            [
              10.63055992126465,
              35.029961227717926
            ],
            [
              10.631182193756104,
              35.030541057363884
            ],
            [
              10.630452632904053,
              35.03106817165444
            ],
            [
              10.631611347198488,
              35.031981828371734
            ],
            [
              10.632512569427492,
              35.032280521621644
            ],
            [
              10.633199214935303,
              35.03282519473771
            ],
            [
              10.63304901123047,
              35.03356313316888
            ],
            [
              10.632405281066895,
              35.033738831813245
            ],
            [
              10.63304901123047,
              35.034722737241204
            ]
          ]
        ]
      },
      "properties": {
        "id": "parcel_1777666300643_1c2ue",
        "name": "Parcelle 12",
        "crop": "olivier",
        "systeme": "extensif",
        "area_ha": 49.28764309617389,
        "created_at": "2026-05-01T20:11:40.643Z",
        "gouvernorat": "ولاية صفاقس",
        "split": "train"
      }
    },
    {
      "type": "Feature",
      "geometry": {
        "type": "Polygon",
        "coordinates": [
          [
            [
              10.49271583557129,
              35.031033030807485
            ],
            [
              10.498809814453127,
              35.03890420315312
            ],
            [
              10.502092838287355,
              35.04308545508831
            ],
            [
              10.507392883300783,
              35.048970468127834
            ],
            [
              10.50846576690674,
              35.0484610360006
            ],
            [
              10.507006645202638,
              35.04673948323255
            ],
            [
              10.509109497070314,
              35.045790857018886
            ],
            [
              10.512049198150635,
              35.043753030124776
            ],
            [
              10.516598224639894,
              35.04884750204321
            ],
            [
              10.520160198211672,
              35.04491248959109
            ],
            [
              10.519151687622072,
              35.04350708206181
            ],
            [
              10.52069664001465,
              35.04248814648434
            ],
            [
              10.521812438964846,
              35.0432787010546
            ],
            [
              10.524988174438478,
              35.03955424376166
            ],
            [
              10.519731044769289,
              35.03526739408075
            ],
            [
              10.517048835754396,
              35.03421321626627
            ],
            [
              10.505311489105226,
              35.03259678387291
            ],
            [
              10.49271583557129,
              35.031033030807485
            ]
          ]
        ]
      },
      "properties": {
        "id": "parcel_1777666340373_juajr",
        "name": "Parcelle 13",
        "crop": "olivier",
        "systeme": "extensif",
        "area_ha": 303.20435155336753,
        "created_at": "2026-05-01T20:12:20.373Z",
        "gouvernorat": "ولاية صفاقس",
        "split": "train"
      }
    },
    {
      "type": "Feature",
      "geometry": {
        "type": "Polygon",
        "coordinates": [
          [
            [
              10.492630004882814,
              35.03076947397384
            ],
            [
              10.482652187347414,
              35.01917213196589
            ],
            [
              10.484712123870851,
              35.01448001258356
            ],
            [
              10.489304065704347,
              35.0107718176869
            ],
            [
              10.496771335601808,
              35.00414585660239
            ],
            [
              10.500161647796633,
              35.00572769979328
            ],
            [
              10.504024028778076,
              35.008856144038816
            ],
            [
              10.506727695465088,
              35.01135178342994
            ],
            [
              10.510504245758058,
              35.01418125429301
            ],
            [
              10.520009994506838,
              35.022264917365405
            ],
            [
              10.52018165588379,
              35.02521701247679
            ],
            [
              10.516147613525392,
              35.02753644099585
            ],
            [
              10.517177581787111,
              35.029644955268225
            ],
            [
              10.523271560668945,
              35.02620102049196
            ],
            [
              10.528421401977539,
              35.02880155608607
            ],
            [
              10.531597137451172,
              35.032456223023445
            ],
            [
              10.525159835815431,
              35.03962451811228
            ],
            [
              10.518808364868166,
              35.03449433167976
            ],
            [
              10.492630004882814,
              35.03076947397384
            ]
          ]
        ]
      },
      "properties": {
        "id": "parcel_1777666373384_lm2rb",
        "name": "Parcelle 14",
        "crop": "olivier",
        "systeme": "extensif",
        "area_ha": 802.5649560894694,
        "created_at": "2026-05-01T20:12:53.384Z",
        "gouvernorat": "ولاية صفاقس",
        "split": "train"
      }
    },
    {
      "type": "Feature",
      "geometry": {
        "type": "Polygon",
        "coordinates": [
          [
            [
              10.435380935668947,
              35.05336199263528
            ],
            [
              10.427505970001222,
              35.046230037191
            ],
            [
              10.428256988525392,
              35.04535167448557
            ],
            [
              10.435702800750734,
              35.044701680003044
            ],
            [
              10.440101623535158,
              35.04438546460099
            ],
            [
              10.439393520355226,
              35.04550978046958
            ],
            [
              10.437440872192385,
              35.05012985353865
            ],
            [
              10.435380935668947,
              35.05336199263528
            ]
          ]
        ]
      },
      "properties": {
        "id": "parcel_1777666392195_gp8ab",
        "name": "Parcelle 15",
        "crop": "olivier",
        "systeme": "extensif",
        "area_ha": 59.06211966714234,
        "created_at": "2026-05-01T20:13:12.195Z",
        "gouvernorat": "ولاية صفاقس",
        "split": "train"
      }
    },
    {
      "type": "Feature",
      "geometry": {
        "type": "Polygon",
        "coordinates": [
          [
            [
              10.441195964813234,
              35.05016498617298
            ],
            [
              10.44904947280884,
              35.043489514314686
            ],
            [
              10.453255176544191,
              35.04691515354466
            ],
            [
              10.452353954315187,
              35.048355635853454
            ],
            [
              10.453855991363527,
              35.04972582715769
            ],
            [
              10.456817150115969,
              35.05193916455456
            ],
            [
              10.455143451690676,
              35.05601435904989
            ],
            [
              10.444843769073488,
              35.05337955825916
            ],
            [
              10.441195964813234,
              35.05016498617298
            ]
          ]
        ]
      },
      "properties": {
        "id": "parcel_1777666410382_4ozey",
        "name": "Parcelle 16",
        "crop": "olivier",
        "systeme": "extensif",
        "area_ha": 104.69984177156394,
        "created_at": "2026-05-01T20:13:30.382Z",
        "gouvernorat": "ولاية صفاقس",
        "split": "train"
      }
    },
    {
      "type": "Feature",
      "geometry": {
        "type": "Polygon",
        "coordinates": [
          [
            [
              10.444586277008058,
              35.04403411271866
            ],
            [
              10.450444221496584,
              35.04334897220174
            ],
            [
              10.453855991363527,
              35.0423827386303
            ],
            [
              10.455701351165773,
              35.0407488995021
            ],
            [
              10.450723171234133,
              35.03705946515644
            ],
            [
              10.451323986053469,
              35.03607558786257
            ],
            [
              10.448577404022219,
              35.034265925479964
            ],
            [
              10.447354316711428,
              35.03530253310705
            ],
            [
              10.443341732025148,
              35.03256164368321
            ],
            [
              10.44231176376343,
              35.03349285360536
            ],
            [
              10.441496372222902,
              35.03294818493896
            ],
            [
              10.441989898681642,
              35.03113845330299
            ],
            [
              10.438599586486818,
              35.03187640696408
            ],
            [
              10.436089038848879,
              35.03231566193224
            ],
            [
              10.434393882751467,
              35.032526503478394
            ],
            [
              10.43256998062134,
              35.032280521621644
            ],
            [
              10.429952144622805,
              35.035179546448944
            ],
            [
              10.430960655212404,
              35.03593503299644
            ],
            [
              10.424845218658449,
              35.04131108439452
            ],
            [
              10.425188541412355,
              35.04229489864806
            ],
            [
              10.429437160491945,
              35.045193568195565
            ],
            [
              10.438084602355959,
              35.038746084385295
            ],
            [
              10.43905019760132,
              35.03936098898579
            ],
            [
              10.436840057373049,
              35.040889446087846
            ],
            [
              10.438449382781984,
              35.04178542488859
            ],
            [
              10.43628215789795,
              35.04366519161587
            ],
            [
              10.437440872192385,
              35.044490869871
            ],
            [
              10.44055223464966,
              35.04442059970611
            ],
            [
              10.442419052124025,
              35.04445573479611
            ],
            [
              10.444586277008058,
              35.04403411271866
            ]
          ]
        ]
      },
      "properties": {
        "id": "parcel_1777666449437_wci0q",
        "name": "Parcelle 17",
        "crop": "olivier",
        "systeme": "extensif",
        "area_ha": 253.9376947109025,
        "created_at": "2026-05-01T20:14:09.437Z",
        "gouvernorat": "ولاية صفاقس",
        "split": "train"
      }
    },
    {
      "type": "Feature",
      "geometry": {
        "type": "Polygon",
        "coordinates": [
          [
            [
              10.310153961181642,
              34.95820634396683
            ],
            [
              10.333135128021242,
              34.98711274101094
            ],
            [
              10.305926799774172,
              35.00019111481785
            ],
            [
              10.286400318145754,
              34.975755361312764
            ],
            [
              10.294532775878908,
              34.971992662179474
            ],
            [
              10.293459892272951,
              34.97062116811066
            ],
            [
              10.298416614532472,
              34.968089118732436
            ],
            [
              10.307729244232178,
              34.96355233454366
            ],
            [
              10.305175781250002,
              34.96056284332336
            ],
            [
              10.310153961181642,
              34.95820634396683
            ]
          ]
        ]
      },
      "properties": {
        "id": "parcel_1777666485645_8qagw",
        "name": "Parcelle 18",
        "crop": "olivier",
        "systeme": "extensif",
        "area_ha": 990.7245079752144,
        "created_at": "2026-05-01T20:14:45.645Z",
        "gouvernorat": "ولاية صفاقس",
        "split": "train"
      }
    },
    {
      "type": "Feature",
      "geometry": {
        "type": "Polygon",
        "coordinates": [
          [
            [
              10.312385559082033,
              34.96024630257349
            ],
            [
              10.315303802490236,
              34.95954287430729
            ],
            [
              10.316162109375002,
              34.96130143365135
            ],
            [
              10.318136215209963,
              34.96109040852263
            ],
            [
              10.319595336914064,
              34.96327097531352
            ],
            [
              10.323543548583986,
              34.96348199482668
            ],
            [
              10.325002670288086,
              34.96488877769285
            ],
            [
              10.331268310546877,
              34.962778594336115
            ],
            [
              10.32895088195801,
              34.959261501310166
            ],
            [
              10.32371520996094,
              34.95398557874215
            ],
            [
              10.33195495605469,
              34.9502570553309
            ],
            [
              10.336074829101564,
              34.94786508309557
            ],
            [
              10.354700088500978,
              34.97705644135267
            ],
            [
              10.332984924316406,
              34.98746433753251
            ],
            [
              10.312385559082033,
              34.96024630257349
            ]
          ]
        ]
      },
      "properties": {
        "id": "parcel_1777666507054_wo1vk",
        "name": "Parcelle 19",
        "crop": "olivier",
        "systeme": "extensif",
        "area_ha": 778.7330248700009,
        "created_at": "2026-05-01T20:15:07.054Z",
        "gouvernorat": "ولاية صفاقس",
        "split": "train"
      }
    },
    {
      "type": "Feature",
      "geometry": {
        "type": "Polygon",
        "coordinates": [
          [
            [
              10.285778045654299,
              34.975860855058976
            ],
            [
              10.306034088134767,
              35.00040203920514
            ],
            [
              10.272130966186523,
              35.01361888278539
            ],
            [
              10.247411727905275,
              34.983456047673045
            ],
            [
              10.25505065917969,
              34.98254184881985
            ],
            [
              10.262174606323244,
              34.98901134428797
            ],
            [
              10.274105072021486,
              34.984229592576206
            ],
            [
              10.282516479492188,
              34.9805024453652
            ],
            [
              10.279083251953127,
              34.97783004671269
            ],
            [
              10.285778045654299,
              34.975860855058976
            ]
          ]
        ]
      },
      "properties": {
        "id": "parcel_1777666529889_rdkq2",
        "name": "Parcelle 20",
        "crop": "olivier",
        "systeme": "extensif",
        "area_ha": 1078.2700727821218,
        "created_at": "2026-05-01T20:15:29.889Z",
        "gouvernorat": "ولاية صفاقس",
        "split": "train"
      }
    },
    {
      "type": "Feature",
      "geometry": {
        "type": "Polygon",
        "coordinates": [
          [
            [
              10.148534774780275,
              35.05480236124469
            ],
            [
              10.174970626831056,
              35.05466183859628
            ],
            [
              10.193080902099611,
              35.039273145754755
            ],
            [
              10.18535614013672,
              35.029504389342186
            ],
            [
              10.166215896606447,
              35.02767701030615
            ],
            [
              10.14716148376465,
              35.02823928512995
            ],
            [
              10.131111145019533,
              35.03224538129597
            ],
            [
              10.124588012695314,
              35.046862452490686
            ],
            [
              10.148534774780275,
              35.05480236124469
            ]
          ]
        ]
      },
      "properties": {
        "id": "parcel_1777666572107_7pdad",
        "name": "Parcelle 21",
        "crop": "olivier",
        "systeme": "extensif",
        "area_ha": 1443.2951926499438,
        "created_at": "2026-05-01T20:16:12.107Z",
        "gouvernorat": "ولاية صفاقس",
        "split": "train"
      }
    },
    {
      "type": "Feature",
      "geometry": {
        "type": "Polygon",
        "coordinates": [
          [
            [
              10.15840530395508,
              35.05501314476387
            ],
            [
              10.149564743041994,
              35.05522392773897
            ],
            [
              10.12467384338379,
              35.04714352438559
            ],
            [
              10.106992721557619,
              35.06505986141228
            ],
            [
              10.117635726928713,
              35.06990713563417
            ],
            [
              10.128364562988283,
              35.074332656337596
            ],
            [
              10.135316848754885,
              35.07651020540783
            ],
            [
              10.15840530395508,
              35.05501314476387
            ]
          ]
        ]
      },
      "properties": {
        "id": "parcel_1777666591451_o64cz",
        "name": "Parcelle 22",
        "crop": "olivier",
        "systeme": "extensif",
        "area_ha": 790.8698653056623,
        "created_at": "2026-05-01T20:16:31.451Z",
        "gouvernorat": "ولاية صفاقس",
        "split": "train"
      }
    },
    {
      "type": "Feature",
      "geometry": {
        "type": "Polygon",
        "coordinates": [
          [
            [
              10.124416351318361,
              35.033299584494074
            ],
            [
              10.145788192749025,
              35.028169000988484
            ],
            [
              10.14389991760254,
              35.0207888298361
            ],
            [
              10.140981674194338,
              35.02114028166495
            ],
            [
              10.138492584228517,
              35.01284561564833
            ],
            [
              10.120296478271486,
              35.01460303038599
            ],
            [
              10.121841430664064,
              35.025006152075406
            ],
            [
              10.124416351318361,
              35.033299584494074
            ]
          ]
        ]
      },
      "properties": {
        "id": "parcel_1777666608727_pm8wx",
        "name": "Parcelle 23",
        "crop": "olivier",
        "systeme": "extensif",
        "area_ha": 367.63711614930213,
        "created_at": "2026-05-01T20:16:48.727Z",
        "gouvernorat": "ولاية صفاقس",
        "split": "train"
      }
    }
  ]
}